{"results":1,"data":[{"wind":{"degrees":130,"speed_kts":9,"speed_mph":10,"speed_mps":5,"speed_kph":17},"temperature":{"celsius":16,"fahrenheit":61},"dewpoint":{"celsius":7,"fahrenheit":45},"humidity":{"percent":55},"barometer":{"hg":29.82,"hpa":1010,"kpa":100.99,"mb":1009.92},"visibility":{"miles":"Greater than 6","miles_float":6.21,"meters":"10,000+","meters_float":9999},"ceiling":{"code":"BKN","text":"Broken","feet":20000,"meters":6096,"base_feet_agl":20000,"base_meters_agl":6096},"elevation":{"feet":108,"meters":33},"location":{"coordinates":[28.8146,40.976898],"type":"Point"},"icao":"LTBA","station":{"name":"Istanbul Atatürk Airport"},"raw_text":"LTBA 101820Z 13009KT 9999 FEW040 BKN200 16/07 Q1010 NOSIG RMK RWY23 13007KT","observed":"2020-12-10T18:20:00.000Z","flight_category":"VFR","clouds":[{"code":"FEW","text":"Few","feet":4000,"meters":1219,"base_feet_agl":4000,"base_meters_agl":1219},{"code":"BKN","text":"Broken","feet":20000,"meters":6096,"base_feet_agl":20000,"base_meters_agl":6096}],"conditions":[]}]}